IRIDIUM 119             
1 42959U 17061E   25279.02975491 -.00000037  00000+0 -20254-4 0  9994
2 42959  86.3960 131.5246 0002248  90.4224 269.7230 14.34216510418382
IRIDIUM 107             
1 42960U 17061F   25279.04878346  .00000095  00000+0  26688-4 0  9998
2 42960  86.3961 131.5368 0002552  82.6583 277.4902 14.34217077418391
IRIDIUM 132             
1 42961U 17061G   25279.05512572  .00000430  00000+0  14650-3 0  9994
2 42961  86.3956 131.5153 0002232  84.2075 275.9376 14.34217402418397
IRIDIUM 136             
1 42962U 17061H   25279.15660547  .00000428  00000+0  14571-3 0  9991
2 42962  86.3960 131.4783 0002315  87.3815 272.7645 14.34216145418420
IRIDIUM 139             
1 42963U 17061J   25279.09318278  .00000434  00000+0  14776-3 0  9990
2 42963  86.3962 131.5628 0002313  81.2346 278.9111 14.34216433418428
IRIDIUM 125             
1 42964U 17061K   25279.08049339  .00000374  00000+0  12655-3 0  9996
2 42964  86.3963 131.6245 0002715  88.6129 271.5378 14.34220059418436
IRIDIUM 135             
1 43070U 17083A   25279.12438727 -.00000294  00000+0 -11208-3 0  9993
2 43070  86.3930  68.2094 0001918  91.3213 268.8203 14.34216387407731
IRIDIUM 138             
1 43071U 17083B   25279.14974252  .00000481  00000+0  16450-3 0  9994
2 43071  86.3920  67.8547 0002387 101.9916 258.1548 14.34223953407728
